start=new Date('2022-06-08T00:00:00.000Z').valueOf();
sats=[{"RCS_SIZE":"LARGE","OBJECT_ID":"2022-010J","MEAN_MOTION_DDOT":"0.0000000000000","ELEMENT_SET_NO":"999","ECCENTRICITY":"0.00020360","TIME_SYSTEM":"UTC","MEAN_ELEMENT_THEORY":"SGP4","RA_OF_ASC_NODE":"313.0306","EPOCH":"2022-06-07T20:30:12.155904","OBJECT_NAME":"STARLINK-3189","OBJECT_TYPE":"PAYLOAD","SITE":"AFETR","GP_ID":"205596497","FILE":"3485136","MEAN_MOTION_DOT":"-0.00000267","REV_AT_EPOCH":"2037","MEAN_ANOMALY":"310.9893","BSTAR":"0.00000134170000","CLASSIFICATION_TYPE":"U","APOAPSIS":"541.126","MEAN_MOTION":"15.08849075","COUNTRY_CODE":"US","REF_FRAME":"TEME","PERIAPSIS":"538.309","CENTER_NAME":"EARTH","TLE_LINE1":"1 51464U 22010J   22158.85430736 -.00000267  00000-0  13417-5 0  9996","ARG_OF_PERICENTER":"49.1276","NORAD_CAT_ID":"51464","PERIOD":"95.437","DECAY_DATE":null,"INCLINATION":"53.2190","SEMIMAJOR_AXIS":"6917.853","LAUNCH_DATE":"2022-02-03","EPHEMERIS_TYPE":"0","TLE_LINE2":"2 51464  53.2190 313.0306 0002036  49.1276 310.9893 15.08849075 20370"},{"PERIAPSIS":"538.593","MEAN_MOTION":"15.08843127","REF_FRAME":"TEME","COUNTRY_CODE":"US","MEAN_ANOMALY":"313.5950","BSTAR":"-0.00004822900000","CLASSIFICATION_TYPE":"U","REV_AT_EPOCH":"2037","MEAN_MOTION_DOT":"-0.00001056","APOAPSIS":"540.879","TLE_LINE2":"2 51465  53.2188 313.0467 0001652  46.5180 313.5950 15.08843127 20379","LAUNCH_DATE":"2022-02-03","SEMIMAJOR_AXIS":"6917.871","EPHEMERIS_TYPE":"0","INCLINATION":"53.2188","PERIOD":"95.437","NORAD_CAT_ID":"51465","DECAY_DATE":null,"CENTER_NAME":"EARTH","ARG_OF_PERICENTER":"46.5180","TLE_LINE1":"1 51465U 22010K   22158.85062543 -.00001056  00000-0 -48229-4 0  9990","TIME_SYSTEM":"UTC","ECCENTRICITY":"0.00016520","ELEMENT_SET_NO":"999","OBJECT_ID":"2022-010K","MEAN_MOTION_DDOT":"0.0000000000000","RCS_SIZE":"LARGE","FILE":"3485136","GP_ID":"205596747","OBJECT_TYPE":"PAYLOAD","SITE":"AFETR","OBJECT_NAME":"STARLINK-3401","RA_OF_ASC_NODE":"313.0467","MEAN_ELEMENT_THEORY":"SGP4","EPOCH":"2022-06-07T20:24:54.037152"},{"ELEMENT_SET_NO":"999","ECCENTRICITY":"0.00021740","TIME_SYSTEM":"UTC","RCS_SIZE":"LARGE","MEAN_MOTION_DDOT":"0.0000000000000","OBJECT_ID":"2022-010M","GP_ID":"205597497","FILE":"3485136","EPOCH":"2022-06-07T19:58:24.268512","RA_OF_ASC_NODE":"313.1430","MEAN_ELEMENT_THEORY":"SGP4","SITE":"AFETR","OBJECT_TYPE":"PAYLOAD","OBJECT_NAME":"STARLINK-3178","REF_FRAME":"TEME","COUNTRY_CODE":"US","MEAN_MOTION":"15.08857101","PERIAPSIS":"538.189","APOAPSIS":"541.197","CLASSIFICATION_TYPE":"U","BSTAR":"-0.00020663000000","MEAN_ANOMALY":"313.9791","MEAN_MOTION_DOT":"-0.00003577","REV_AT_EPOCH":"1956","INCLINATION":"53.2181","TLE_LINE2":"2 51467  53.2181 313.1430 0002174  46.1380 313.9791 15.08857101 19566","SEMIMAJOR_AXIS":"6917.828","LAUNCH_DATE":"2022-02-03","EPHEMERIS_TYPE":"0","TLE_LINE1":"1 51467U 22010M   22158.83222533 -.00003577  00000-0 -20663-3 0  9998","ARG_OF_PERICENTER":"46.1380","CENTER_NAME":"EARTH","DECAY_DATE":null,"PERIOD":"95.436","NORAD_CAT_ID":"51467"},{"TLE_LINE1":"1 51468U 22010N   22158.84326081  .00000888  00000-0  73848-4 0  9997","ARG_OF_PERICENTER":"48.1855","CENTER_NAME":"EARTH","DECAY_DATE":null,"NORAD_CAT_ID":"51468","PERIOD":"95.437","INCLINATION":"53.2201","EPHEMERIS_TYPE":"0","LAUNCH_DATE":"2022-02-03","SEMIMAJOR_AXIS":"6917.856","TLE_LINE2":"2 51468  53.2201 313.0853 0001964  48.1855 311.9304 15.08847835 20375","APOAPSIS":"541.080","MEAN_MOTION_DOT":"0.00000888","REV_AT_EPOCH":"2037","BSTAR":"0.00007384800000","CLASSIFICATION_TYPE":"U","MEAN_ANOMALY":"311.9304","COUNTRY_CODE":"US","REF_FRAME":"TEME","MEAN_MOTION":"15.08847835","PERIAPSIS":"538.363","EPOCH":"2022-06-07T20:14:17.733984","MEAN_ELEMENT_THEORY":"SGP4","RA_OF_ASC_NODE":"313.0853","OBJECT_NAME":"STARLINK-3174","OBJECT_TYPE":"PAYLOAD","SITE":"AFETR","GP_ID":"205572006","FILE":"3485078","RCS_SIZE":"LARGE","MEAN_MOTION_DDOT":"0.0000000000000","OBJECT_ID":"2022-010N","ELEMENT_SET_NO":"999","ECCENTRICITY":"0.00019640","TIME_SYSTEM":"UTC"},{"RCS_SIZE":"LARGE","OBJECT_ID":"2022-010P","MEAN_MOTION_DDOT":"0.0000000000000","ELEMENT_SET_NO":"999","ECCENTRICITY":"0.00020300","TIME_SYSTEM":"UTC","RA_OF_ASC_NODE":"313.3096","MEAN_ELEMENT_THEORY":"SGP4","EPOCH":"2022-06-07T19:00:08.421696","SITE":"AFETR","OBJECT_TYPE":"PAYLOAD","OBJECT_NAME":"STARLINK-3182","GP_ID":"205595997","FILE":"3485136","BSTAR":"-0.00009869200000","CLASSIFICATION_TYPE":"U","MEAN_ANOMALY":"316.7113","MEAN_MOTION_DOT":"-0.00001858","REV_AT_EPOCH":"1986","APOAPSIS":"541.181","MEAN_MOTION":"15.08829645","REF_FRAME":"TEME","COUNTRY_CODE":"US","PERIAPSIS":"538.373","CENTER_NAME":"EARTH","TLE_LINE1":"1 51469U 22010P   22158.79176414 -.00001858  00000-0 -98692-4 0  9999","ARG_OF_PERICENTER":"43.4039","PERIOD":"95.438","NORAD_CAT_ID":"51469","DECAY_DATE":null,"INCLINATION":"53.2188","TLE_LINE2":"2 51469  53.2188 313.3096 0002030  43.4039 316.7113 15.08829645 19861","LAUNCH_DATE":"2022-02-03","EPHEMERIS_TYPE":"0","SEMIMAJOR_AXIS":"6917.912"},{"SITE":"AFETR","OBJECT_TYPE":"PAYLOAD","OBJECT_NAME":"STARLINK-3165","RA_OF_ASC_NODE":"308.2690","MEAN_ELEMENT_THEORY":"SGP4","EPOCH":"2022-06-07T19:14:01.816224","FILE":"3485084","GP_ID":"205572110","OBJECT_ID":"2022-010R","MEAN_MOTION_DDOT":"0.0000000000000","RCS_SIZE":"LARGE","TIME_SYSTEM":"UTC","ELEMENT_SET_NO":"999","ECCENTRICITY":"0.00017640","PERIOD":"95.437","NORAD_CAT_ID":"51471","DECAY_DATE":null,"CENTER_NAME":"EARTH","TLE_LINE1":"1 51471U 22010R   22158.80140991  .00000622  00000-0  57168-4 0  9994","ARG_OF_PERICENTER":"48.2379","TLE_LINE2":"2 51471  53.2183 308.2690 0001764  48.2379 311.8764 15.08844806 20434","SEMIMAJOR_AXIS":"6917.866","LAUNCH_DATE":"2022-02-03","EPHEMERIS_TYPE":"0","INCLINATION":"53.2183","BSTAR":"0.00005716800000","CLASSIFICATION_TYPE":"U","MEAN_ANOMALY":"311.8764","REV_AT_EPOCH":"2043","MEAN_MOTION_DOT":"0.00000622","APOAPSIS":"540.951","PERIAPSIS":"538.510","MEAN_MOTION":"15.08844806","REF_FRAME":"TEME","COUNTRY_CODE":"US"},{"NORAD_CAT_ID":"51472","PERIOD":"95.437","DECAY_DATE":null,"CENTER_NAME":"EARTH","ARG_OF_PERICENTER":"50.5087","TLE_LINE1":"1 51472U 22010S   22158.83959537  .00003209  00000-0  21963-3 0  9999","SEMIMAJOR_AXIS":"6917.871","LAUNCH_DATE":"2022-02-03","EPHEMERIS_TYPE":"0","TLE_LINE2":"2 51472  53.2218 313.1053 0001936  50.5087 309.6076 15.08843138 19879","INCLINATION":"53.2218","REV_AT_EPOCH":"1987","MEAN_MOTION_DOT":"0.00003209","CLASSIFICATION_TYPE":"U","BSTAR":"0.00021963000000","MEAN_ANOMALY":"309.6076","APOAPSIS":"541.075","PERIAPSIS":"538.396","MEAN_MOTION":"15.08843138","COUNTRY_CODE":"US","REF_FRAME":"TEME","OBJECT_NAME":"STARLINK-3415","OBJECT_TYPE":"PAYLOAD","SITE":"AFETR","MEAN_ELEMENT_THEORY":"SGP4","RA_OF_ASC_NODE":"313.1053","EPOCH":"2022-06-07T20:09:01.039968","FILE":"3485136","GP_ID":"205596997","OBJECT_ID":"2022-010S","MEAN_MOTION_DDOT":"0.0000000000000","RCS_SIZE":"LARGE","TIME_SYSTEM":"UTC","ELEMENT_SET_NO":"999","ECCENTRICITY":"0.00019360"},{"ELEMENT_SET_NO":"999","ECCENTRICITY":"0.00022480","TIME_SYSTEM":"UTC","RCS_SIZE":"LARGE","OBJECT_ID":"2022-016A","MEAN_MOTION_DDOT":"0.0000000000000","GP_ID":"205596013","FILE":"3485136","RA_OF_ASC_NODE":"2.7642","MEAN_ELEMENT_THEORY":"SGP4","EPOCH":"2022-06-07T22:00:00.999936","SITE":"AFETR","OBJECT_TYPE":"PAYLOAD","OBJECT_NAME":"STARLINK-3528","MEAN_MOTION":"15.08838346","REF_FRAME":"TEME","COUNTRY_CODE":"US","PERIAPSIS":"538.195","BSTAR":"0.00126830000000","CLASSIFICATION_TYPE":"U","MEAN_ANOMALY":"353.3897","REV_AT_EPOCH":"130","MEAN_MOTION_DOT":"0.00019954","APOAPSIS":"541.306","INCLINATION":"53.2193","TLE_LINE2":"2 51714  53.2193   2.7642 0002248  50.6880 353.3897 15.08838346  1305","SEMIMAJOR_AXIS":"6917.885","LAUNCH_DATE":"2022-02-21","EPHEMERIS_TYPE":"0","CENTER_NAME":"EARTH","ARG_OF_PERICENTER":"50.6880","TLE_LINE1":"1 51714U 22016A   22158.91667824  .00019954  00000-0  12683-2 0  9990","PERIOD":"95.438","NORAD_CAT_ID":"51714","DECAY_DATE":null},{"EPHEMERIS_TYPE":"0","LAUNCH_DATE":"2022-02-21","SEMIMAJOR_AXIS":"6917.864","TLE_LINE2":"2 51715  53.2187   2.7610 0001950  48.9575  55.1235 15.08845413  1300","INCLINATION":"53.2187","DECAY_DATE":null,"NORAD_CAT_ID":"51715","PERIOD":"95.437","ARG_OF_PERICENTER":"48.9575","TLE_LINE1":"1 51715U 22016B   22158.91667824  .00003151  00000-0  21596-3 0  9997","CENTER_NAME":"EARTH","PERIAPSIS":"538.380","COUNTRY_CODE":"US","REF_FRAME":"TEME","MEAN_MOTION":"15.08845413","APOAPSIS":"541.078","MEAN_MOTION_DOT":"0.00003151","REV_AT_EPOCH":"130","BSTAR":"0.00021596000000","MEAN_ANOMALY":"55.1235","CLASSIFICATION_TYPE":"U","FILE":"3485136","GP_ID":"205596263","OBJECT_NAME":"STARLINK-3533","OBJECT_TYPE":"PAYLOAD","SITE":"AFETR","EPOCH":"2022-06-07T22:00:00.999936","MEAN_ELEMENT_THEORY":"SGP4","RA_OF_ASC_NODE":"2.7610","TIME_SYSTEM":"UTC","ECCENTRICITY":"0.00019500","ELEMENT_SET_NO":"999","MEAN_MOTION_DDOT":"0.0000000000000","OBJECT_ID":"2022-016B","RCS_SIZE":"LARGE"},{"RCS_SIZE":"LARGE","MEAN_MOTION_DDOT":"0.0000000000000","OBJECT_ID":"2022-016C","ECCENTRICITY":"0.00020840","ELEMENT_SET_NO":"999","TIME_SYSTEM":"UTC","EPOCH":"2022-06-07T22:00:00.999936","RA_OF_ASC_NODE":"2.7634","MEAN_ELEMENT_THEORY":"SGP4","SITE":"AFETR","OBJECT_TYPE":"PAYLOAD","OBJECT_NAME":"STARLINK-3543","GP_ID":"205597013","FILE":"3485136","APOAPSIS":"541.215","MEAN_ANOMALY":"13.6577","BSTAR":"0.00122370000000","CLASSIFICATION_TYPE":"U","REV_AT_EPOCH":"130","MEAN_MOTION_DOT":"0.00019236","REF_FRAME":"TEME","COUNTRY_CODE":"US","MEAN_MOTION":"15.08830756","PERIAPSIS":"538.332","TLE_LINE1":"1 51716U 22016C   22158.91667824  .00019236  00000-0  12237-2 0  9990","ARG_OF_PERICENTER":"50.4278","CENTER_NAME":"EARTH","DECAY_DATE":null,"PERIOD":"95.438","NORAD_CAT_ID":"51716","INCLINATION":"53.2188","TLE_LINE2":"2 51716  53.2188   2.7634 0002084  50.4278  13.6577 15.08830756  1307","LAUNCH_DATE":"2022-02-21","SEMIMAJOR_AXIS":"6917.909","EPHEMERIS_TYPE":"0"}];
